[{"OBJECT_NAME":"YUNHAI-2 01A","OBJECT_ID":"2018-112A","EPOCH":"2026-03-09T22:34:33.618432","MEAN_MOTION":14.28975171,"ECCENTRICITY":4.652e-5,"INCLINATION":50.0087,"RA_OF_ASC_NODE":105.4873,"ARG_OF_PERICENTER":228.8508,"MEAN_ANOMALY":131.2367,"EPHEMERIS_TYPE":0,"CLASSIFICATION_TYPE":"U","NORAD_CAT_ID":43909,"ELEMENT_SET_NO":999,"REV_AT_EPOCH":37689,"BSTAR":7.7064636e-5,"MEAN_MOTION_DOT":3.5e-7,"MEAN_MOTION_DDOT":0},{"OBJECT_NAME":"FEDSAT","OBJECT_ID":"2002-056B","EPOCH":"2026-03-09T20:43:59.087712","MEAN_MOTION":14.29699937,"ECCENTRICITY":0.00078771,"INCLINATION":98.8498,"RA_OF_ASC_NODE":40.6325,"ARG_OF_PERICENTER":267.3765,"MEAN_ANOMALY":92.6515,"EPHEMERIS_TYPE":0,"CLASSIFICATION_TYPE":"U","NORAD_CAT_ID":27598,"ELEMENT_SET_NO":999,"REV_AT_EPOCH":21156,"BSTAR":9.4612267e-5,"MEAN_MOTION_DOT":1.97e-6,"MEAN_MOTION_DDOT":0}]
